NORAD_CAT_ID,OBJECT_NAME,OBJECT_TYPE,EPOCH,MEAN_MOTION,ECCENTRICITY,INCLINATION,RA_OF_ASC_NODE,ARG_OF_PERICENTER,MEAN_ANOMALY,BSTAR,MEAN_MOTION_DOT,MEAN_MOTION_DDOT,TLE_LINE0,TLE_LINE1,TLE_LINE2,SEMIMAJOR_AXIS,PERIOD,APOGEE,PERIGEE,DECAYED
52118.0,STARLINK-3743,PAYLOAD,2022-04-17 04:00:00,15.73132878,0.000132,53.2169,0.7017,107.8168,200.2307,0.00072888,0.00102635,0.0,0 STARLINK-3743,1 52118U 22029AG  22107.16667824  .00102635  00000-0  72888-3 0  9997,2 52118  53.2169   0.7017 0001320 107.8168 200.2307 15.73132878  5809,6728.087,91.537,350.84,349.06300000000016,0.0
52118.0,STARLINK-3743,PAYLOAD,2022-04-17 12:00:00,15.73171707,0.0001393,53.217,359.0502,118.6063,278.3334,0.00056692,0.00079604,0.0,0 STARLINK-3743,1 52118U 22029AG  22107.50001157  .00079604  00000-0  56692-3 0  9990,2 52118  53.2170 359.0502 0001393 118.6063 278.3334 15.73171707  5860,6727.976,91.535,350.778,348.904,0.0
52118.0,STARLINK-3743,PAYLOAD,2022-04-17 14:00:01,15.73176531,0.0001406,53.2167,358.6375,119.3506,29.8186,0.00066574,0.00093766,0.0,0 STARLINK-3743,1 52118U 22029AG  22107.58334491  .00093766  00000-0  66574-3 0  9993,2 52118  53.2167 358.6375 0001406 119.3506  29.8186 15.73176531  3709,6727.962,91.535,350.773,348.881,0.0
52118.0,STARLINK-3743,PAYLOAD,2022-04-17 22:00:00,15.73249552,0.0001324,53.2165,356.9897,113.6378,124.481,0.00020436,0.00028217,0.0,0 STARLINK-3743,1 52118U 22029AG  22107.91667824  .00028217  00000-0  20436-3 0  9995,2 52118  53.2165 356.9897 0001324 113.6378 124.4810 15.73249552  3700,6727.754,91.53,350.51,348.728,0.0
52118.0,STARLINK-3743,PAYLOAD,2022-04-18 04:00:00,15.73281556,0.000117,53.2159,355.7531,112.9286,101.9386,-0.00013992,-0.00020278,0.0,0 STARLINK-3743,1 52118U 22029AG  22108.16667824 -.00020278  00000-0 -13992-3 0  9993,2 52118  53.2159 355.7531 0001170 112.9286 101.9386 15.73281556  5962,6727.663000000001,91.528,350.315,348.741,0.0
52118.0,STARLINK-3743,PAYLOAD,2022-04-18 14:00:01,15.73216218,0.0001367,53.2158,353.6885,124.2536,291.8908,9.3622e-05,0.00012548,0.0,0 STARLINK-3743,1 52118U 22029AG  22108.58334491  .00012548  00000-0  93622-4 0  9998,2 52118  53.2158 353.6885 0001367 124.2536 291.8908 15.73216218  3704,6727.849,91.532,350.634,348.7940000000001,0.0
52118.0,STARLINK-3743,PAYLOAD,2022-04-18 20:00:01,15.73227053,0.0001460999999999,53.2162,352.4525,118.7442,274.1014,-0.00041109,-0.00057985,0.0,0 STARLINK-3743,1 52118U 22029AG  22108.83334491 -.00057985  00000-0 -41109-3 0  9994,2 52118  53.2162 352.4525 0001461 118.7442 274.1014 15.73227053  6070,6727.818,91.532,350.666,348.7,0.0
52118.0,STARLINK-3743,PAYLOAD,2022-04-18 22:00:00,15.73191966,0.000143,53.216,352.0406,114.5904,30.5011,2.1337e-05,2.374e-05,0.0,0 STARLINK-3743,1 52118U 22029AG  22108.91667824  .00002374  00000-0  21337-4 0  9994,2 52118  53.2160 352.0406 0001430 114.5904  30.5011 15.73191966  3694,6727.918000000002,91.534,350.745,348.821,0.0
52118.0,STARLINK-3743,PAYLOAD,2022-04-19 04:00:00,15.73190069,0.000133,53.216,350.8041,112.1057,9.6856,0.00069835,0.00098503,0.0,0 STARLINK-3743,1 52118U 22029AG  22109.16667824  .00098503  00000-0  69835-3 0  9995,2 52118  53.2160 350.8041 0001330 112.1057   9.6856 15.73190069  6125,6727.9230000000025,91.534,350.68300000000005,348.894,0.0
52118.0,STARLINK-3743,PAYLOAD,2022-04-19 12:00:00,15.73229652,0.0001298,53.2161,349.1523,123.6962,87.0459,-0.00014683,-0.00021201,0.0,0 STARLINK-3743,1 52118U 22029AG  22109.50001157 -.00021201  00000-0 -14683-3 0  9998,2 52118  53.2161 349.1523 0001298 123.6962  87.0459 15.73229652  6172,6727.811,91.531,350.5490000000001,348.802,0.0
52118.0,STARLINK-3743,PAYLOAD,2022-04-19 14:00:01,15.73206171,0.0001341,53.216,348.7397,124.3494,198.6405,0.00014221,0.00019389,0.0,0 STARLINK-3743,1 52118U 22029AG  22109.58334491  .00019389  00000-0  14221-3 0  9996,2 52118  53.2160 348.7397 0001341 124.3494 198.6405 15.73206171  3709,6727.878000000002,91.533,350.645,348.84,0.0
52118.0,STARLINK-3743,PAYLOAD,2022-04-20 14:00:01,15.73193889,0.0001493,53.2153,343.7908,126.1607,103.6384,8.765799999999999e-05,0.00011696,0.0,0 STARLINK-3743,1 52118U 22029AG  22110.58334491  .00011696  00000-0  87658-4 0  9996,2 52118  53.2153 343.7908 0001493 126.1607 103.6384 15.73193889  3701,6727.913000000001,91.534,350.782,348.773,0.0
52118.0,STARLINK-3743,PAYLOAD,2022-04-20 20:00:01,15.73187763,0.000129,53.2157,342.5551,122.9312,83.5669,4.1452e-05,5.198e-05,0.0,0 STARLINK-3743,1 52118U 22029AG  22110.83334491  .00005198  00000-0  41452-4 0  9996,2 52118  53.2157 342.5551 0001290 122.9312  83.5669 15.73187763  6381,6727.93,91.534,350.663,348.927,0.0
52118.0,STARLINK-3743,PAYLOAD,2022-04-20 22:00:00,15.73172129,0.0001247,53.2155,342.1432,120.5961,198.1351,0.00031913,0.00044351,0.0,0 STARLINK-3743,1 52118U 22029AG  22110.91667824  .00044351  00000-0  31913-3 0  9998,2 52118  53.2155 342.1432 0001247 120.5961 198.1351 15.73172129  3691,6727.975,91.535,350.67900000000014,349.001,0.0
52118.0,STARLINK-3743,PAYLOAD,2022-04-21 14:00:01,15.73202225,0.0001479,53.2158,338.8421,121.5674,15.0161,-0.00037979,-0.00053589,0.0,0 STARLINK-3743,1 52118U 22029AG  22111.58334491 -.00053589  00000-0 -37979-3 0  9996,2 52118  53.2158 338.8421 0001479 121.5674  15.0161 15.73202225  3702,6727.889,91.533,350.749,348.759,0.0
52118.0,STARLINK-3743,PAYLOAD,2022-04-21 22:00:00,15.73177981,0.0001496,53.2156,337.1945,111.179,114.3513,0.00042653,0.0005961,0.0,0 STARLINK-3743,1 52118U 22029AG  22111.91667824  .00059610  00000-0  42653-3 0  9996,2 52118  53.2156 337.1945 0001496 111.1790 114.3513 15.73177981  3711,6727.958000000001,91.534,350.829,348.816,0.0
52118.0,STARLINK-3743,PAYLOAD,2022-04-22 14:00:01,15.73231835,0.0001425,53.2154,333.8933,127.9766,275.4571,-0.00032245,-0.00045691,0.0,0 STARLINK-3743,1 52118U 22029AG  22112.58334491 -.00045691  00000-0 -32245-3 0  9993,2 52118  53.2154 333.8933 0001425 127.9766 275.4571 15.73231835  6668,6727.804,91.531,350.62800000000016,348.711,0.0
52118.0,STARLINK-3743,PAYLOAD,2022-04-23 12:00:00,15.73193348,0.0001192,53.2156,329.3572,131.6757,66.271,0.00013561,0.00018448,0.0,0 STARLINK-3743,1 52118U 22029AG  22113.50001157  .00018448  00000-0  13561-3 0  9994,2 52118  53.2156 329.3572 0001192 131.6757  66.2710 15.73193348  6805,6727.9140000000025,91.534,350.581,348.977,0.0
52118.0,STARLINK-3743,PAYLOAD,2022-04-23 14:00:01,15.73221039,0.0001230999999999,53.2158,328.9449,129.6486,180.5212,-0.00026198,-0.00037257,0.0,0 STARLINK-3743,1 52118U 22029AG  22113.58334491 -.00037257  00000-0 -26198-3 0  9993,2 52118  53.2158 328.9449 0001231 129.6486 180.5212 15.73221039  3695,6727.835,91.532,350.528,348.872,0.0
52118.0,STARLINK-3743,PAYLOAD,2022-04-24 12:00:02,15.73215469,0.0001355,53.215,324.4086,126.5554,338.3185,-7.043199999999999e-05,-0.00010499,0.0,0 STARLINK-3743,1 52118U 22029AG  22114.50002315 -.00010499  00000-0 -70432-4 0  9993,2 52118  53.2150 324.4086 0001355 126.5554 338.3185 15.73215469  6969,6727.851,91.532,350.62800000000016,348.80400000000014,0.0
52118.0,STARLINK-3743,PAYLOAD,2022-04-24 14:00:01,15.73228988,0.0001385,53.2152,323.9964,127.3439,89.6946,-0.00024964,-0.00035551,0.0,0 STARLINK-3743,1 52118U 22029AG  22114.58334491 -.00035551  00000-0 -24964-3 0  9998,2 52118  53.2152 323.9964 0001385 127.3439  89.6946 15.73228988  3704,6727.813,91.531,350.6090000000001,348.746,0.0
52118.0,STARLINK-3743,PAYLOAD,2022-04-25 04:00:00,15.73149816,0.0001299,53.2151,321.1113,112.6045,170.0817,-6.6335e-05,-9.898e-05,0.0,0 STARLINK-3743,1 52118U 22029AG  22115.16667824 -.00009898  00000-0 -66335-4 0  9996,2 52118  53.2151 321.1113 0001299 112.6045 170.0817 15.73149816  7060,6728.038000000001,91.536,350.777,349.029,0.0
52118.0,STARLINK-3743,PAYLOAD,2022-04-25 12:00:00,15.73146066,0.0001401,53.2153,319.4601,119.9188,251.6329,0.00047573,0.00066521,0.0,0 STARLINK-3743,1 52118U 22029AG  22115.50001157  .00066521  00000-0  47573-3 0  9991,2 52118  53.2153 319.4601 0001401 119.9188 251.6329 15.73146066  7122,6728.049,91.536,350.857,348.971,0.0
52118.0,STARLINK-3743,PAYLOAD,2022-04-25 14:00:01,15.73188989,0.0001434,53.2155,319.0481,120.2785,3.4816,-5.3116e-05,-8.064e-05,0.0,0 STARLINK-3743,1 52118U 22029AG  22115.58334491 -.00008064  00000-0 -53116-4 0  9990,2 52118  53.2155 319.0481 0001434 120.2785   3.4816 15.73188989  3715,6727.927,91.534,350.756,348.827,0.0
52118.0,STARLINK-3743,PAYLOAD,2022-04-25 20:00:01,15.7317339,0.0001156,53.215,317.8127,114.5334,345.9311,5.6179e-06,1.68e-06,0.0,0 STARLINK-3743,1 52118U 22029AG  22115.83334491  .00000168  00000-0  56179-5 0  9996,2 52118  53.2150 317.8127 0001156 114.5334 345.9311 15.73173390  7178,6727.971,91.535,350.61400000000015,349.05800000000005,0.0
52118.0,STARLINK-3743,PAYLOAD,2022-04-25 22:00:00,15.73140984,0.0001115,53.2152,317.4007,110.5994,102.0984,0.00055479,0.00077767,0.0,0 STARLINK-3743,1 52118U 22029AG  22115.91667824  .00077767  00000-0  55479-3 0  9993,2 52118  53.2152 317.4007 0001115 110.5994 102.0984 15.73140984  3713,6728.063,91.537,350.67900000000014,349.17800000000005,0.0
52118.0,STARLINK-3743,PAYLOAD,2022-04-26 04:00:00,15.73232387,0.0001078,53.2143,316.1628,115.9496,73.4127,-0.00027845,-0.00039568,0.0,0 STARLINK-3743,1 52118U 22029AG  22116.16667824 -.00039568  00000-0 -27845-3 0  9996,2 52118  53.2143 316.1628 0001078 115.9496  73.4127 15.73232387  7221,6727.803000000001,91.531,350.39300000000014,348.9430000000001,0.0
52118.0,STARLINK-3743,PAYLOAD,2022-04-26 14:00:01,15.7319125,0.0001250999999999,53.2147,314.0996,123.5379,267.0699,0.00045001,0.00062987,0.0,0 STARLINK-3743,1 52118U 22029AG  22116.58335648  .00062987  00000-0  45001-3 0  9991,2 52118  53.2147 314.0996 0001251 123.5379 267.0699 15.73191250  3693,6727.92,91.534,350.62699999999984,348.9430000000001,0.0
52118.0,STARLINK-3743,PAYLOAD,2022-04-26 22:00:00,15.73283248,0.0001131,53.2158,312.4491,116.2233,3.2682,-0.0011832,-0.00164056,0.0,0 STARLINK-3743,1 52118U 22029AG  22116.91667824 -.00164056  00000-0 -11832-2 0  9998,2 52118  53.2158 312.4491 0001131 116.2233   3.2682 15.73283248  7349,6727.658,91.528,350.284,348.76199999999994,0.0
